{"type": "FeatureCollection", "features": [{"type": "Feature", "id": 1, "geometry": {"type": "Polygon", "coordinates": [[[30.00711776969349, 31.109658649581956], [30.00692555148099, 31.10961593395855], [30.00692555199633, 31.10943083505494], [30.00644144685589, 31.10890401586873], [30.00604989151686, 31.108270408111554], [30.005757701686374, 31.10713146335707], [30.005437916069205, 31.107025481679617], [30.00537979855946, 31.106661918163674], [30.007445252053987, 31.106227202917708], [30.00753780119781, 31.106497731939882], [30.0079008800444, 31.10667571118907], [30.00789376020443, 31.106419421021805], [30.008007667357656, 31.106483493530433], [30.008036144456103, 31.106704188179318], [30.00834938850665, 31.106725545505896], [30.008363626872487, 31.106540447169678], [30.008513129526317, 31.106511970209194], [30.008648394558456, 31.106511969919083], [30.008648394053857, 31.1062912749795], [30.008968757544235, 31.106163130486586], [30.00908266411801, 31.10629127542056], [30.009217928317412, 31.106326871219697], [30.009559649688306, 31.10624856036995], [30.009395908160492, 31.105764455368394], [30.01064888437144, 31.105486807733413], [30.010656003424803, 31.105892601500262], [30.010584812345698, 31.106504851101455], [30.010940771747915, 31.106540446463043], [30.01084822226289, 31.107031670535342], [30.010385475481225, 31.107031670363515], [30.010235972252943, 31.107473060220933], [30.010271567833676, 31.107622563169937], [30.01000103920316, 31.10804971413367], [30.009877827387758, 31.10811846947483], [30.00963796113206, 31.108647725727966], [30.009880013156447, 31.108676201924943], [30.009737629425544, 31.10898232712325], [30.00972339120433, 31.10913894900521], [30.009431503886532, 31.11020682652575], [30.00898092853036, 31.11010007428054], [30.008947400246655, 31.10935252484257], [30.00876041585087, 31.109383809582976], [30.008634155419365, 31.109302690163897], [30.008256838590718, 31.10923861744589], [30.00795783348094, 31.10923861786428], [30.00711776969349, 31.109658649581956]]]}, "properties": {"OBJECTID": 1, "Name": "Kom Ishu", "Area": 0.144202396, "Perimeter": 2.08119297, "Shape_Area": 144202.39399279482, "Shape_Length": 2081.192886282988}}, {"type": "Feature", "id": 3, "geometry": {"type": "Polygon", "coordinates": [[[30.02295795348033, 30.99029841340526], [30.02283692767105, 30.990675729724888], [30.022402657313148, 30.99102456976667], [30.022162313759342, 30.991130503361283], [30.021844513614415, 30.99119201344038], [30.021475454739992, 30.99123814522331], [30.021057131595676, 30.991245264437605], [30.020716834115486, 30.991248397171585], [30.020265763408542, 30.991166383883094], [30.019789062081745, 30.991061304707536], [30.019445633061164, 30.99100492136647], [30.01908682610365, 30.990935722476387], [30.019086826137308, 30.99062561102497], [30.019107329751453, 30.990333440002598], [30.019112455638385, 30.99018222823334], [30.019133205545703, 30.98990056461276], [30.019048382368794, 30.989605574685942], [30.018889482912037, 30.98940566791335], [30.018986512747546, 30.988996269267417], [30.018800349975937, 30.98891729167156], [30.018949852622395, 30.988518617691266], [30.019142071171782, 30.98834775725384], [30.01920586403451, 30.988400127999103], [30.01962617523797, 30.987621600504976], [30.020081803275254, 30.987707030903476], [30.02053031203441, 30.987294117914498], [30.0207154104367, 30.98741514390692], [30.020793721502447, 30.98730835608925], [30.020939807835866, 30.987103038758608], [30.02189206967867, 30.98741742188794], [30.021533050530135, 30.98825706155701], [30.021576831805092, 30.988297922916797], [30.02178328832445, 30.988653882157887], [30.021526997142917, 30.98920205867837], [30.02255216043708, 30.989714640009414], [30.022723020426074, 30.989629209746834], [30.022751497750043, 30.989415634891493], [30.022893880461126, 30.98938003895942], [30.022929476732827, 30.989294608843558], [30.02270166328626, 30.9891379867529], [30.02280133127995, 30.988796265674242], [30.023114575111002, 30.988895934418597], [30.023057621881673, 30.98945834931137], [30.02295795348033, 30.99029841340526]]]}, "properties": {"OBJECTID": 3, "Name": "Kom El-Gel", "Area": 0.12330474, "Perimeter": 1.76143861, "Shape_Area": 123304.73738788029, "Shape_Length": 1761.438605984506}}, {"type": "Feature", "id": 5, "geometry": {"type": "Polygon", "coordinates": [[[30.005136467645308, 31.092450664603827], [30.003716106990257, 31.092150323931023], [30.003472080401878, 31.092663405158845], [30.0029777691903, 31.092344293843844], [30.00314045406796, 31.092056467760138], [30.002145576259785, 31.091881268857264], [30.002045461963416, 31.092131552829592], [30.001676293578615, 31.092094009900638], [30.00145729579212, 31.09255077758589], [30.001100640967437, 31.09245692182824], [30.001294610961292, 31.09193758277656], [30.00114444026263, 31.091856240336632], [30.00102555589059, 31.09203769566867], [30.000875385514515, 31.09193758253564], [30.00078778575846, 31.092025181901946], [30.000769014500644, 31.091862497636757], [30.000556273203834, 31.09174361219093], [30.000399846583186, 31.09168104150899], [30.000249675961648, 31.09185623989311], [29.99983670822196, 31.0917123272652], [29.999511338688023, 31.091537128759924], [29.999379939524854, 31.091293101643384], [29.998184834174165, 31.091105389254786], [29.998666630487364, 31.089828941257785], [30.000280961252088, 31.09010425383903], [30.001707578728237, 31.090410851480936], [30.001982891486637, 31.09014805365814], [30.002205741109687, 31.090310768763867], [30.002370830873275, 31.090316994956336], [30.00284637070516, 31.08904680433114], [30.003371966448054, 31.08925328864678], [30.003259339178214, 31.089572400400957], [30.003709849906976, 31.089791399304552], [30.003666049605204, 31.089960340375953], [30.003090397199642, 31.08983519898895], [30.002852627638, 31.0901230248449], [30.002564801507397, 31.09010425327067], [30.002339546341744, 31.090561021589796], [30.00248619054623, 31.09066009691301], [30.002552286794796, 31.090855104733983], [30.003759906490966, 31.09105533223298], [30.00430427371559, 31.09126807324083], [30.004836126390177, 31.091236787778797], [30.00515523875149, 31.09124930244345], [30.005152695684863, 31.091412044475515], [30.005674577274316, 31.091543385339], [30.005217809321465, 31.092444406919252], [30.005136467645308, 31.092450664603827]]]}, "properties": {"OBJECTID": 5, "Name": "Kom El-Haggag", "Area": 0.114652336, "Perimeter": 2.48701787, "Shape_Area": 114652.33558482744, "Shape_Length": 2487.017906079922}}, {"type": "Feature", "id": 6, "geometry": {"type": "Polygon", "coordinates": [[[30.056070575027597, 30.97204562780034], [30.056802890411088, 30.972346065315975], [30.056329330968317, 30.973094594265646], [30.056863995269318, 30.974194474778994], [30.057200070029808, 30.97504993677269], [30.057352830792446, 30.975752637742037], [30.058115292104745, 30.97746402654898], [30.056938958448143, 30.977464026473505], [30.057413323772714, 30.97940607235363], [30.056367216615016, 30.979425626305538], [30.055897933573842, 30.979689597271012], [30.0557610599294, 30.98045218079561], [30.055536196169218, 30.980735705209455], [30.05389370786199, 30.98052061799875], [30.054245669346003, 30.97972870426582], [30.053082241285605, 30.97923009217078], [30.052534745304133, 30.979709150853406], [30.051821045576975, 30.979503839937326], [30.051703724594564, 30.97964071389274], [30.05135176328287, 30.979591829805944], [30.050628286154147, 30.978760809630703], [30.051894385410154, 30.977006745602843], [30.051058461779473, 30.97666859334946], [30.050491412493685, 30.97703033159486], [30.049220440043445, 30.97605266016724], [30.049827519144902, 30.975654132515093], [30.051288801062693, 30.97427290775835], [30.052152280378515, 30.974335478649113], [30.052984473996027, 30.974229108750784], [30.05423589309224, 30.974128994709087], [30.054511205663516, 30.97334060121907], [30.054836573936672, 30.97276494820569], [30.05310961555046, 30.97228940874936], [30.053384928268034, 30.971838897767885], [30.054792774209908, 30.972276894709903], [30.055343399206635, 30.971144360158146], [30.05617657065547, 30.971429498047737], [30.05617657046733, 30.971735020601468], [30.056070575027597, 30.97204562780034]]]}, "properties": {"OBJECTID": 6, "Name": "Kom El-Farag", "Area": 0.455699861, "Perimeter": 3.9271431, "Shape_Area": 455699.8674431929, "Shape_Length": 3927.143175439278}}, {"type": "Feature", "id": 7, "geometry": {"type": "Polygon", "coordinates": [[[30.057251812986767, 31.02250885482188], [30.059810964753805, 31.02100715215384], [30.06063690162847, 31.021307492251257], [30.061806977919115, 31.02181431692814], [30.06131266749775, 31.022608968323794], [30.05953565235786, 31.02329724836782], [30.057251812986767, 31.02250885482188]]]}, "properties": {"OBJECTID": 7, "Name": "Kom El-Mahar", "Area": 0.0603016727, "Perimeter": 1.0278554, "Shape_Area": 60301.67118518624, "Shape_Length": 1027.8554044372468}}, {"type": "Feature", "id": 8, "geometry": {"type": "Polygon", "coordinates": [[[30.078345262718116, 30.93809946820825], [30.079117622809964, 30.938099468080818], [30.08025172160913, 30.938324332077947], [30.08068189654661, 30.93826567188993], [30.081160955831983, 30.93834388523501], [30.081747558053507, 30.938119020991376], [30.082040859215294, 30.937463981152835], [30.082304830424896, 30.93702402972295], [30.082735006473357, 30.93614412556928], [30.08300875407426, 30.93626144568594], [30.082686122321377, 30.937121796961108], [30.083077191433663, 30.937317330822474], [30.08325317139775, 30.937620409167252], [30.083399822823992, 30.93785505032179], [30.08314562824487, 30.938422099330076], [30.083927765002436, 30.93872517721434], [30.08437749411669, 30.938910934389842], [30.08467079499406, 30.939438877543047], [30.084993426177345, 30.93933133347409], [30.085384494794315, 30.93954642126754], [30.08530628088713, 30.93976150858661], [30.084768562522427, 30.939790839006573], [30.084954319293207, 30.94054364553658], [30.08586355357405, 30.94049476208139], [30.085951544295835, 30.94072940289944], [30.086430602927546, 30.940729403270456], [30.086225291710974, 30.94133555936649], [30.084299280177284, 30.941306228944864], [30.08325317138429, 30.94198082235655], [30.083121671809412, 30.94187682697149], [30.08328250199902, 30.941521316510126], [30.082777891101617, 30.941171585752585], [30.083028307570935, 30.940983597200002], [30.082437129457244, 30.940619510932315], [30.08204085987855, 30.939781062532397], [30.081884432519615, 30.940250344229906], [30.081444479797998, 30.939829945320636], [30.081092518605143, 30.939937489328592], [30.080844675451246, 30.939771672952205], [30.081395596442658, 30.939360663374355], [30.081023647678524, 30.939206876565652], [30.08035926528862, 30.93983972230865], [30.080144177755034, 30.93981039188257], [30.080261498751756, 30.93947798383492], [30.07965534237602, 30.938891381221335], [30.07944025478709, 30.939106469450806], [30.079019855946722, 30.93895981840471], [30.07859945725906, 30.938686070845844], [30.078335486487433, 30.93856874963755], [30.07790531072096, 30.938862051621776], [30.07757290277862, 30.93861763304222], [30.078345262718116, 30.93809946820825]]]}, "properties": {"OBJECTID": 8, "Name": "Kom Adda", "Area": 0.15788351, "Perimeter": 3.05164647, "Shape_Area": 157883.50407766053, "Shape_Length": 3051.646352423352}}, {"type": "Feature", "id": 10, "geometry": {"type": "Polygon", "coordinates": [[[30.38976538046274, 31.439433334160327], [30.389937607027058, 31.439638366704536], [30.38998189435076, 31.43962360475157], [30.390013059414343, 31.439644928084935], [30.390027821163518, 31.439671171988305], [30.390036023058393, 31.439707258218352], [30.390028256405202, 31.43972572179887], [30.39001824340774, 31.43974401873983], [30.38999139798775, 31.439757030500505], [30.389958169154166, 31.43975926059512], [30.389932077557702, 31.439745432085033], [30.389923671609935, 31.439733165359502], [30.38951113993298, 31.439984462039476], [30.389505808523662, 31.440021722497], [30.389493689078087, 31.440041099220604], [30.38946416400301, 31.440057501220018], [30.38942069183177, 31.440068348523877], [30.389388027415983, 31.44005777315546], [30.38935610559499, 31.440025850353646], [30.389350876640822, 31.439995029176508], [30.3893550040084, 31.439970537547282], [30.38937196987994, 31.43995546489766], [30.389215299810687, 31.439752975472008], [30.389158483301685, 31.43978598992367], [30.38900429929611, 31.43967609321795], [30.389207691399715, 31.439587519248082], [30.38946029209458, 31.439477621690628], [30.389604634819808, 31.439343120324832], [30.389748976873577, 31.43924306420103], [30.389821148608732, 31.43938576684637], [30.38976538046274, 31.439433334160327]]]}, "properties": {"OBJECTID": 10, "Name": "Citadle Qitbai", "Area": 0.00376325264, "Perimeter": 0.301382095, "Shape_Area": 3763.252567161762, "Shape_Length": 301.38209189203496}}, {"type": "Feature", "id": 11, "geometry": {"type": "Polygon", "coordinates": [[[30.358774410622114, 31.446838288342057], [30.35842841850005, 31.446845976806223], [30.35842585560731, 31.446753711943828], [30.358220823324356, 31.446758838116637], [30.35807473767853, 31.44671270544499], [30.358013227407216, 31.446623003529783], [30.35800297625072, 31.446494858917404], [30.35803116860151, 31.446328269547607], [30.35812599521919, 31.44623600535969], [30.35836947134369, 31.44608735619649], [30.358587318406475, 31.446038661196575], [30.358677020012912, 31.44602584666992], [30.358702851341537, 31.446243231279702], [30.358625762212508, 31.446246257081125], [30.358689835390308, 31.446664010716027], [30.358779536373945, 31.446671699001786], [30.358774410622114, 31.446838288342057]]]}, "properties": {"OBJECTID": 11, "Name": "Tabiya El-Abd", "Area": 0.00462644547, "Perimeter": 0.299405038, "Shape_Area": 4626.445586042167, "Shape_Length": 299.40502815826767}}, {"type": "Feature", "id": 12, "geometry": {"type": "Polygon", "coordinates": [[[30.97794789960117, 31.584579333544383], [30.97794436818382, 31.58446970722787], [30.97803130865591, 31.584386027165692], [30.978164979697702, 31.584383853133144], [30.978253859089786, 31.584462021505708], [30.978255931201225, 31.584569809030743], [30.97817530408825, 31.58464847852583], [30.978050326149482, 31.584652282044903], [30.97794789960117, 31.584579333544383]]]}, "properties": {"OBJECTID": 12, "Name": "Burj El-Burullus", "Area": 0.000715839909, "Perimeter": 0.0974412188, "Shape_Area": 715.8399179458257, "Shape_Length": 97.44121888995205}}, {"type": "Feature", "id": 13, "geometry": {"type": "Polygon", "coordinates": [[[30.8141188347873, 31.372256102924545], [30.813700953558783, 31.37317146287968], [30.81240751036193, 31.37380823491348], [30.81211565596368, 31.373794969192506], [30.811014571596395, 31.373808234506846], [30.810583423983214, 31.373761803736734], [30.810218606194915, 31.373615876610298], [30.809800724508673, 31.37341688579174], [30.809687963462956, 31.373231160382318], [30.80973439434694, 31.372826545101088], [30.80964153225968, 31.372269369163597], [30.809993082685256, 31.37179178991467], [30.809820623611667, 31.371679028682617], [30.810682918884382, 31.37105552267881], [30.8141188347873, 31.372256102924545]]]}, "properties": {"OBJECTID": 13, "Name": "Kom El-Ahmar Bahari", "Area": 0.090507105, "Perimeter": 1.18284118, "Shape_Area": 90507.10843385608, "Shape_Length": 1182.8412348739048}}, {"type": "Feature", "id": 14, "geometry": {"type": "Polygon", "coordinates": [[[31.00922559579501, 31.587131936854874], [31.0095020663844, 31.586803301983455], [31.009628385374448, 31.58690999169081], [31.009651604182707, 31.58689719702416], [31.00969507449241, 31.586928496112463], [31.009677686498225, 31.58694066726321], [31.00975071660765, 31.58697370504656], [31.009707246606194, 31.587032824416994], [31.009738545227997, 31.58705021272758], [31.00968811938983, 31.587093683279758], [31.009722895508183, 31.587126720328147], [31.009510760865517, 31.58733885568242], [31.00922559579501, 31.587131936854874]]]}, "properties": {"OBJECTID": 14, "Name": "Moseque Sidi Yousef El-Sotohi", "Area": 0.00158109062, "Perimeter": 0.169192895, "Shape_Area": 1581.0905652962642, "Shape_Length": 169.19289063469628}}, {"type": "Feature", "id": 15, "geometry": {"type": "Polygon", "coordinates": [[[30.550110713839185, 31.203535302649332], [30.550107500423238, 31.203493535337067], [30.550171115353887, 31.203490964757762], [30.55019810336798, 31.203483254428622], [30.55020967024426, 31.203500603862697], [30.55020324428345, 31.20351859538098], [30.55019938871623, 31.20356036329953], [30.550178183192735, 31.203561647661548], [30.550152480557397, 31.203557149880027], [30.550153765404335, 31.203534017839246], [30.550110713839185, 31.203535302649332]]]}, "properties": {"OBJECTID": 15, "Name": "Moseque El-Bakie", "Area": 5.76012862e-05, "Perimeter": 0.033577498, "Shape_Area": 57.60128719665772, "Shape_Length": 33.57749664011927}}, {"type": "Feature", "id": 16, "geometry": {"type": "Polygon", "coordinates": [[[30.44464698441558, 31.161247482849117], [30.445512424460915, 31.16064167455429], [30.446127471808786, 31.160211141533395], [30.44799288704803, 31.15961894595509], [30.448984813340168, 31.15945609226324], [30.450494910772147, 31.15964855561586], [30.45065776502464, 31.159989068050198], [30.451916179818873, 31.160818141433502], [30.45241954508043, 31.16139553127462], [30.452138252845046, 31.161928506598716], [30.45169410676612, 31.162609531473645], [30.451294374433292, 31.162979653620724], [30.45045049709639, 31.163719896740655], [30.44901442391068, 31.163719896962537], [30.448659106377296, 31.16357184832585], [30.447770813240556, 31.163557043863083], [30.446349545898784, 31.16315731140569], [30.444913472297447, 31.16136592189947], [30.44464698441558, 31.161247482849117]]]}, "properties": {"OBJECTID": 16, "Name": "Kom El-Ahmar Qabli (Mahmoudiah)", "Area": 0.240840927, "Perimeter": 1.88010025, "Shape_Area": 240840.92606914343, "Shape_Length": 1880.1003067213828}}, {"type": "Feature", "id": 17, "geometry": {"type": "Polygon", "coordinates": [[[30.160164866107152, 31.203386571980335], [30.160368649925033, 31.203088026659806], [30.16142877344139, 31.203229376739582], [30.16138304158633, 31.203589704740455], [30.161075399154907, 31.20478422411994], [30.160085950983145, 31.204430849542437], [30.160006440814445, 31.203838947625883], [30.16003098006216, 31.20360368494635], [30.160164866107152, 31.203386571980335]]]}, "properties": {"OBJECTID": 17, "Name": "Kom Mazen", "Area": 0.0186587572, "Perimeter": 0.538326323, "Shape_Area": 18658.75704695099, "Shape_Length": 538.326315323762}}, {"type": "Feature", "id": 18, "geometry": {"type": "MultiPolygon", "coordinates": [[[[30.148509052832758, 31.079602418878412], [30.14802281066852, 31.079822924477813], [30.147683571060853, 31.07946106920579], [30.14783622888408, 31.079319719137306], [30.14833943333367, 31.079240563049197], [30.148509052832758, 31.079602418878412]]], [[[30.146945946217862, 31.080433996666542], [30.146711282909493, 31.08108277032576], [30.146324779793964, 31.081593506954018], [30.14509625172388, 31.08048921202097], [30.145275699855723, 31.080213137923618], [30.144488890109837, 31.07986804571597], [30.143729686830174, 31.078984609530963], [30.143853920288525, 31.07866712540444], [30.143426006255172, 31.07815638882532], [30.144129994051372, 31.077272952837685], [30.143550238935422, 31.07659657250464], [30.144088583297314, 31.076085835604882], [30.143191343351607, 31.07511957759845], [30.14531711097253, 31.07302141747237], [30.145786436759803, 31.07322847319644], [30.145399933079805, 31.07382203122521], [30.14642140621062, 31.074360375094884], [30.146738891097726, 31.074774485947675], [30.147139197145076, 31.075216203709868], [30.14726343054701, 31.07593399553461], [30.147070179092033, 31.076168657761265], [30.145344718900386, 31.076361910010085], [30.145220485473917, 31.07678982406338], [30.147070179216964, 31.076624179515193], [30.14730838920203, 31.077517928888955], [30.1479398111566, 31.07725914971129], [30.148464351514434, 31.078087370534487], [30.147180608249208, 31.078887984580497], [30.14799502647624, 31.080075100762446], [30.147760363488768, 31.080420193174668], [30.14749809373434, 31.080309763690014], [30.146945946217862, 31.080433996666542]]]]}, "properties": {"OBJECTID": 18, "Name": "Kom El-Qadi", "Area": 0.250268191, "Perimeter": 3.17958283, "Shape_Area": 250268.20539679736, "Shape_Length": 3179.582900641518}}, {"type": "Feature", "id": 19, "geometry": {"type": "Polygon", "coordinates": [[[30.417896348293095, 31.409007137029526], [30.417937137806312, 31.40897014219811], [30.417946467462155, 31.40899065059083], [30.417968441412217, 31.408983422421556], [30.417968441507252, 31.408939787620827], [30.41804148181902, 31.40891891843891], [30.418048014203144, 31.4089410478735], [30.418066145369984, 31.40893314791834], [30.418081321864, 31.409013777414344], [30.417981721289227, 31.40904508039247], [30.417976029151664, 31.409037492082902], [30.41791247488534, 31.40906974340798], [30.417896348293095, 31.409007137029526]]]}, "properties": {"OBJECTID": 19, "Name": "Antique Tahona", "Area": 0.000161276839, "Perimeter": 0.0612440258, "Shape_Area": 161.27683298195217, "Shape_Length": 61.24402431018333}}, {"type": "Feature", "id": 20, "geometry": {"type": "Polygon", "coordinates": [[[30.42257380649099, 31.404788792357028], [30.422534915405496, 31.404935822406127], [30.422432467910095, 31.404920645681557], [30.4224742058751, 31.40476887242221], [30.42257760142023, 31.4047603352126], [30.42257380649099, 31.404788792357028]]]}, "properties": {"OBJECTID": 20, "Name": "Museum Rosseta", "Area": 0.000182069896, "Perimeter": 0.0569665544, "Shape_Area": 182.0698986527224, "Shape_Length": 56.96655402156888}}]}