{"type": "FeatureCollection", "features": [{"type": "Feature", "id": 1, "geometry": {"type": "Point", "coordinates": [30.448491144145315, 31.161745549644206]}, "properties": {"OBJECTID": 1, "N": 1, "Name": "Kom El-Ahmar Qabli (Mahmoudiah)", "X": 31.0708, "Y": 31.5649, "Location": "lies about 15 kilometres north of Damanhur", "Age": null, "Data": "The actual site of Kom el-Ahmar is a large, oval area of about 650 metres from east to west by 450 metres from north to south.", "Importance": "one of the best known sites in Beheira archaeology, as the bath-house was investigated and a stone head of a Ptolemaic queen, another statue head, and, thirteen further statue heads were found here ", "Photo": null}}, {"type": "Feature", "id": 2, "geometry": {"type": "Point", "coordinates": [30.81180000052877, 31.372499999737855]}, "properties": {"OBJECTID": 2, "N": 2, "Name": "Kom El-Ahmar Bahari (Sidi Salem)", "X": 30.8118, "Y": 31.3725, "Location": "lies to the east of Tell Foqaa", "Age": null, "Data": "Is a low mound, perhaps as much as 10 metres above the level of the surrounding fish farms. It is approximately 250 metres from north to south and 360 metres from east to west and so is quite substantial in size. ", "Importance": "Forms an interesting cluster of settlements, along with those on the edge of the former marshland, now agricultural land in the north.", "Photo": null}}, {"type": "Feature", "id": 3, "geometry": {"type": "Point", "coordinates": [30.750799999661382, 31.27979999994345]}, "properties": {"OBJECTID": 3, "N": 3, "Name": "Kom Shiekh Ibrahim", "X": 30.7508, "Y": 31.2798, "Location": null, "Age": null, "Data": null, "Importance": null, "Photo": null}}, {"type": "Feature", "id": 4, "geometry": {"type": "Point", "coordinates": [30.709199999764103, 31.28910000000288]}, "properties": {"OBJECTID": 4, "N": 4, "Name": "Kom Qlieeh", "X": 30.7092, "Y": 31.2891, "Location": null, "Age": null, "Data": null, "Importance": null, "Photo": null}}, {"type": "Feature", "id": 5, "geometry": {"type": "Point", "coordinates": [30.860799999818152, 31.251500000119023]}, "properties": {"OBJECTID": 5, "N": 5, "Name": "Kom Daba", "X": 30.8608, "Y": 31.2515, "Location": null, "Age": null, "Data": null, "Importance": null, "Photo": null}}, {"type": "Feature", "id": 6, "geometry": {"type": "Point", "coordinates": [30.72300000017644, 31.3158000003131]}, "properties": {"OBJECTID": 6, "N": 6, "Name": "Kom el-Arab", "X": 30.723, "Y": 31.3158, "Location": null, "Age": null, "Data": null, "Importance": null, "Photo": null}}, {"type": "Feature", "id": 7, "geometry": {"type": "Point", "coordinates": [30.932399999742092, 31.359499999878487]}, "properties": {"OBJECTID": 7, "N": 7, "Name": "Kom Khanziri", "X": 30.9324, "Y": 31.3595, "Location": null, "Age": null, "Data": null, "Importance": null, "Photo": null}}, {"type": "Feature", "id": 8, "geometry": {"type": "Point", "coordinates": [30.860499999724386, 31.290199999932955]}, "properties": {"OBJECTID": 8, "N": 8, "Name": "Kom Khawalid", "X": 30.8605, "Y": 31.2902, "Location": null, "Age": null, "Data": null, "Importance": null, "Photo": null}}, {"type": "Feature", "id": 9, "geometry": {"type": "Point", "coordinates": [30.825099999763676, 31.268099999666266]}, "properties": {"OBJECTID": 9, "N": 9, "Name": "Kom Sidi Selim", "X": 30.8251, "Y": 31.2681, "Location": null, "Age": null, "Data": null, "Importance": null, "Photo": null}}, {"type": "Feature", "id": 10, "geometry": {"type": "Point", "coordinates": [30.829800000452618, 31.448800000367402]}, "properties": {"OBJECTID": 10, "N": 10, "Name": "Kom El-Akhdar", "X": 30.8298, "Y": 31.4488, "Location": null, "Age": null, "Data": null, "Importance": null, "Photo": null}}, {"type": "Feature", "id": 11, "geometry": {"type": "Point", "coordinates": [30.93330000025917, 31.50560000027985]}, "properties": {"OBJECTID": 11, "N": 11, "Name": "Kom Sinjar", "X": 30.9333, "Y": 31.5056, "Location": null, "Age": null, "Data": null, "Importance": null, "Photo": null}}, {"type": "Feature", "id": 12, "geometry": {"type": "Point", "coordinates": [30.73859999985907, 31.336700000337384]}, "properties": {"OBJECTID": 12, "N": 12, "Name": "Kom Dahab", "X": 30.7386, "Y": 31.3367, "Location": null, "Age": null, "Data": null, "Importance": null, "Photo": null}}, {"type": "Feature", "id": 13, "geometry": {"type": "Point", "coordinates": [30.793100000169346, 31.508199999736465]}, "properties": {"OBJECTID": 13, "N": 13, "Name": "Kom El Qasbah", "X": 30.7931, "Y": 31.5082, "Location": null, "Age": null, "Data": null, "Importance": null, "Photo": null}}, {"type": "Feature", "id": 14, "geometry": {"type": "Point", "coordinates": [30.821099999887238, 31.286000000439728]}, "properties": {"OBJECTID": 14, "N": 14, "Name": "Kom El-Misk", "X": 30.8211, "Y": 31.286, "Location": null, "Age": null, "Data": null, "Importance": null, "Photo": null}}, {"type": "Feature", "id": 15, "geometry": {"type": "Point", "coordinates": [30.702000000205757, 31.244200000420758]}, "properties": {"OBJECTID": 15, "N": 15, "Name": "Kom Abu Ismaiel", "X": 30.702, "Y": 31.2442, "Location": null, "Age": null, "Data": null, "Importance": null, "Photo": null}}, {"type": "Feature", "id": 16, "geometry": {"type": "Point", "coordinates": [30.598599999937385, 31.224999999737634]}, "properties": {"OBJECTID": 16, "N": 16, "Name": "Kom Qabriet", "X": 30.5986, "Y": 31.225, "Location": null, "Age": null, "Data": null, "Importance": null, "Photo": null}}, {"type": "Feature", "id": 17, "geometry": {"type": "Point", "coordinates": [31.138399999656684, 31.34809999990083]}, "properties": {"OBJECTID": 17, "N": 17, "Name": "Kom Hagr", "X": 31.1384, "Y": 31.3481, "Location": null, "Age": null, "Data": null, "Importance": null, "Photo": null}}, {"type": "Feature", "id": 18, "geometry": {"type": "Point", "coordinates": [30.562900000394656, 31.37430000018509]}, "properties": {"OBJECTID": 18, "N": 18, "Name": "Kom Dams", "X": 30.5629, "Y": 31.3743, "Location": null, "Age": null, "Data": null, "Importance": null, "Photo": null}}, {"type": "Feature", "id": 19, "geometry": {"type": "Point", "coordinates": [30.679600000087913, 31.18520000023387]}, "properties": {"OBJECTID": 19, "N": 19, "Name": "Kom El-Nass", "X": 30.6796, "Y": 31.1852, "Location": null, "Age": null, "Data": null, "Importance": null, "Photo": null}}, {"type": "Feature", "id": 20, "geometry": {"type": "Point", "coordinates": [30.9507000000703, 31.236800000174927]}, "properties": {"OBJECTID": 20, "N": 20, "Name": "Tell Kom El-Wahal", "X": 30.9507, "Y": 31.2368, "Location": null, "Age": null, "Data": null, "Importance": null, "Photo": null}}, {"type": "Feature", "id": 21, "geometry": {"type": "Point", "coordinates": [30.751499999806164, 31.281499999840747]}, "properties": {"OBJECTID": 21, "N": 21, "Name": "Tell Qalieaa", "X": 30.7515, "Y": 31.2815, "Location": null, "Age": null, "Data": null, "Importance": null, "Photo": null}}, {"type": "Feature", "id": 22, "geometry": {"type": "Point", "coordinates": [30.65070000052024, 31.23359999957755]}, "properties": {"OBJECTID": 22, "N": 22, "Name": "Tell Matiur", "X": 30.6507, "Y": 31.2336, "Location": null, "Age": null, "Data": null, "Importance": null, "Photo": null}}, {"type": "Feature", "id": 23, "geometry": {"type": "Point", "coordinates": [30.63519999999487, 31.22829999983608]}, "properties": {"OBJECTID": 23, "N": 23, "Name": "Tell Amya", "X": 30.6352, "Y": 31.2283, "Location": null, "Age": null, "Data": null, "Importance": null, "Photo": null}}, {"type": "Feature", "id": 24, "geometry": {"type": "Point", "coordinates": [30.598400000132695, 31.224199999596873]}, "properties": {"OBJECTID": 24, "N": 24, "Name": "Tell Qabrit", "X": 30.5984, "Y": 31.2242, "Location": null, "Age": null, "Data": null, "Importance": null, "Photo": null}}, {"type": "Feature", "id": 25, "geometry": {"type": "Point", "coordinates": [30.554199999633326, 31.286900000083154]}, "properties": {"OBJECTID": 25, "N": 25, "Name": "Tell Mutubis", "X": 30.5542, "Y": 31.2869, "Location": null, "Age": null, "Data": null, "Importance": null, "Photo": null}}, {"type": "Feature", "id": 26, "geometry": {"type": "Point", "coordinates": [30.744500000066147, 31.19610000042835]}, "properties": {"OBJECTID": 26, "N": 26, "Name": "Tell Al- Fraien", "X": 30.7445, "Y": 31.1961, "Location": null, "Age": null, "Data": null, "Importance": null, "Photo": null}}, {"type": "Feature", "id": 27, "geometry": {"type": "Point", "coordinates": [30.672099999678696, 31.415600000362943]}, "properties": {"OBJECTID": 27, "N": 27, "Name": "Tell Nistroh", "X": 30.6721, "Y": 31.4156, "Location": null, "Age": null, "Data": null, "Importance": null, "Photo": null}}, {"type": "Feature", "id": 28, "geometry": {"type": "Point", "coordinates": [30.77309999998885, 31.368600000255576]}, "properties": {"OBJECTID": 28, "N": 28, "Name": "Tell Foqaa", "X": 30.7731, "Y": 31.3686, "Location": null, "Age": null, "Data": null, "Importance": null, "Photo": null}}, {"type": "Feature", "id": 29, "geometry": {"type": "Point", "coordinates": [30.719399999690957, 31.351899999828404]}, "properties": {"OBJECTID": 29, "N": 29, "Name": "Tell Aluwe", "X": 30.7194, "Y": 31.3519, "Location": null, "Age": null, "Data": null, "Importance": null, "Photo": null}}, {"type": "Feature", "id": 30, "geometry": {"type": "Point", "coordinates": [30.76229999965625, 31.409299999926223]}, "properties": {"OBJECTID": 30, "N": 30, "Name": "Jaziert Shakhlobah", "X": 30.7623, "Y": 31.4093, "Location": null, "Age": null, "Data": null, "Importance": null, "Photo": null}}, {"type": "Feature", "id": 31, "geometry": {"type": "Point", "coordinates": [30.938299999733577, 31.51140000019025]}, "properties": {"OBJECTID": 31, "N": 31, "Name": "Jaziert Sinjar", "X": 30.9383, "Y": 31.5114, "Location": null, "Age": null, "Data": null, "Importance": null, "Photo": null}}, {"type": "Feature", "id": 32, "geometry": {"type": "Point", "coordinates": [30.556300000469427, 31.20580000044678]}, "properties": {"OBJECTID": 32, "N": 32, "Name": "Jaziert Dahab", "X": 30.5563, "Y": 31.2058, "Location": null, "Age": null, "Data": null, "Importance": null, "Photo": null}}, {"type": "Feature", "id": 33, "geometry": {"type": "Point", "coordinates": [30.84829999984219, 31.45669999956887]}, "properties": {"OBJECTID": 33, "N": 33, "Name": "Jaziert El-Kom El-Akhdar", "X": 30.8483, "Y": 31.4567, "Location": null, "Age": null, "Data": null, "Importance": null, "Photo": null}}, {"type": "Feature", "id": 34, "geometry": {"type": "Point", "coordinates": [31.077600000299768, 31.59759999984355]}, "properties": {"OBJECTID": 34, "N": 34, "Name": "Tabiya Orabi", "X": 31.0776, "Y": 31.5976, "Location": null, "Age": null, "Data": null, "Importance": null, "Photo": null}}, {"type": "Feature", "id": 35, "geometry": {"type": "Point", "coordinates": [31.082099999833922, 31.598299999683338]}, "properties": {"OBJECTID": 35, "N": 35, "Name": "Burullus Lighhouse", "X": 31.0821, "Y": 31.5983, "Location": null, "Age": null, "Data": null, "Importance": null, "Photo": null}}, {"type": "Feature", "id": 36, "geometry": {"type": "Point", "coordinates": [30.97808875144291, 31.584525709498195]}, "properties": {"OBJECTID": 36, "N": 36, "Name": "Burj El-Burullus", "X": 30.97808875, "Y": 31.58452571, "Location": "It is located near Al-Fanar Beach in the Baltim resort town, overlooking the Mediterranean coast.", "Age": "Islamic Era", "Data": "It was constructed in 1869, during the reign of Khedive Ismail, at a height of approximately 60 meters.", "Importance": "In the past, it was used to guide ships arriving from the Mediterranean, utilizing a kerosene-powered lamp with a range of up to 17 nautical miles. It stands as the only surviving lighthouse from that era.", "Photo": null}}, {"type": "Feature", "id": 37, "geometry": {"type": "Point", "coordinates": [30.742199999602835, 31.196900000169276]}, "properties": {"OBJECTID": 37, "N": 37, "Name": "Town Butо", "X": 30.7422, "Y": 31.1969, "Location": null, "Age": null, "Data": null, "Importance": null, "Photo": null}}, {"type": "Feature", "id": 38, "geometry": {"type": "Point", "coordinates": [31.078399999536998, 31.698300000361897]}, "properties": {"OBJECTID": 38, "N": 38, "Name": "Port Nile Delta", "X": 31.0784, "Y": 31.6983, "Location": null, "Age": null, "Data": null, "Importance": null, "Photo": null}}, {"type": "Feature", "id": 39, "geometry": {"type": "Point", "coordinates": [31.09000000048887, 31.550000000054613]}, "properties": {"OBJECTID": 39, "N": 39, "Name": "Port Paralios Limne", "X": 31.09, "Y": 31.55, "Location": null, "Age": null, "Data": null, "Importance": null, "Photo": null}}, {"type": "Feature", "id": 40, "geometry": {"type": "Point", "coordinates": [30.929700000109488, 31.35850000037311]}, "properties": {"OBJECTID": 40, "N": 40, "Name": "Port Pachnemounis", "X": 30.9297, "Y": 31.3585, "Location": null, "Age": null, "Data": null, "Importance": null, "Photo": null}}, {"type": "Feature", "id": 41, "geometry": {"type": "Point", "coordinates": [30.950899999947392, 31.089499999886762]}, "properties": {"OBJECTID": 41, "N": 41, "Name": "Port Xoïs", "X": 30.9509, "Y": 31.0895, "Location": null, "Age": null, "Data": null, "Importance": null, "Photo": null}}, {"type": "Feature", "id": 42, "geometry": {"type": "Point", "coordinates": [30.744999999650364, 31.08999999995517]}, "properties": {"OBJECTID": 42, "N": 42, "Name": "Cabasa, Kabasa", "X": 30.745, "Y": 31.09, "Location": null, "Age": null, "Data": null, "Importance": null, "Photo": null}}, {"type": "Feature", "id": 43, "geometry": {"type": "Point", "coordinates": [30.77329999995281, 31.224300000053034]}, "properties": {"OBJECTID": 43, "N": 43, "Name": "Kom el-Gir", "X": 30.7733, "Y": 31.2243, "Location": null, "Age": null, "Data": null, "Importance": null, "Photo": null}}, {"type": "Feature", "id": 44, "geometry": {"type": "Point", "coordinates": [30.94670000014655, 31.10349999970114]}, "properties": {"OBJECTID": 44, "N": 44, "Name": "Museum kafr el-shiekh", "X": 30.9467, "Y": 31.1035, "Location": null, "Age": null, "Data": null, "Importance": null, "Photo": null}}, {"type": "Feature", "id": 45, "geometry": {"type": "Point", "coordinates": [31.09250000048198, 31.552400000417595]}, "properties": {"OBJECTID": 45, "N": 45, "Name": "Museum Aquarium Baltim", "X": 31.0925, "Y": 31.5524, "Location": null, "Age": null, "Data": null, "Importance": null, "Photo": null}}, {"type": "Feature", "id": 46, "geometry": {"type": "Point", "coordinates": [30.94439999979815, 31.08940000043772]}, "properties": {"OBJECTID": 46, "N": 46, "Name": "Town Sakha", "X": 30.9444, "Y": 31.0894, "Location": null, "Age": null, "Data": null, "Importance": null, "Photo": null}}, {"type": "Feature", "id": 47, "geometry": {"type": "Point", "coordinates": [30.550199999898002, 31.20350000023479]}, "properties": {"OBJECTID": 47, "N": 47, "Name": "Town Fowaa", "X": 30.5502, "Y": 31.2035, "Location": null, "Age": null, "Data": null, "Importance": null, "Photo": null}}, {"type": "Feature", "id": 48, "geometry": {"type": "Point", "coordinates": [30.940000000331633, 31.118700000410385]}, "properties": {"OBJECTID": 48, "N": 48, "Name": "Palace Foaad", "X": 30.94, "Y": 31.1187, "Location": null, "Age": null, "Data": null, "Importance": null, "Photo": null}}, {"type": "Feature", "id": 49, "geometry": {"type": "Point", "coordinates": [30.551799999646324, 31.200100000413435]}, "properties": {"OBJECTID": 49, "N": 49, "Name": "Hotel Roba El-Khatabia", "X": 30.5518, "Y": 31.2001, "Location": null, "Age": null, "Data": null, "Importance": null, "Photo": null}}, {"type": "Feature", "id": 50, "geometry": {"type": "Point", "coordinates": [30.646599999626563, 31.128400000326916]}, "properties": {"OBJECTID": 50, "N": 50, "Name": "Monument of the Martyrs", "X": 30.6466, "Y": 31.1284, "Location": null, "Age": null, "Data": null, "Importance": null, "Photo": null}}, {"type": "Feature", "id": 51, "geometry": {"type": "Point", "coordinates": [30.748500000515275, 31.088200000261054]}, "properties": {"OBJECTID": 51, "N": 51, "Name": "Monument Shabas", "X": 30.7485, "Y": 31.0882, "Location": null, "Age": null, "Data": null, "Importance": null, "Photo": null}}, {"type": "Feature", "id": 52, "geometry": {"type": "Point", "coordinates": [31.22200000001741, 31.173600000317055]}, "properties": {"OBJECTID": 52, "N": 52, "Name": "Wadi El-Malk", "X": 31.222, "Y": 31.1736, "Location": null, "Age": null, "Data": null, "Importance": null, "Photo": null}}, {"type": "Feature", "id": 53, "geometry": {"type": "Point", "coordinates": [30.946999999901305, 31.104399999557018]}, "properties": {"OBJECTID": 53, "N": 53, "Name": "Park Sanaa", "X": 30.947, "Y": 31.1044, "Location": null, "Age": null, "Data": null, "Importance": null, "Photo": null}}, {"type": "Feature", "id": 54, "geometry": {"type": "Point", "coordinates": [30.55669999983196, 31.33750000022567]}, "properties": {"OBJECTID": 54, "N": 54, "Name": "Menia El-Morshed", "X": 30.5567, "Y": 31.3375, "Location": null, "Age": null, "Data": null, "Importance": null, "Photo": null}}, {"type": "Feature", "id": 55, "geometry": {"type": "Point", "coordinates": [31.084699999962147, 31.55490000036726]}, "properties": {"OBJECTID": 55, "N": 55, "Name": "Hadba Baltiem", "X": 31.0847, "Y": 31.5549, "Location": null, "Age": null, "Data": null, "Importance": null, "Photo": null}}, {"type": "Feature", "id": 56, "geometry": {"type": "Point", "coordinates": [30.947800000364033, 31.088899999692863]}, "properties": {"OBJECTID": 56, "N": 56, "Name": "Dier Al-Adraa Sakha", "X": 30.9478, "Y": 31.0889, "Location": null, "Age": null, "Data": null, "Importance": null, "Photo": null}}, {"type": "Feature", "id": 57, "geometry": {"type": "Point", "coordinates": [31.108099999761617, 31.59829999955006]}, "properties": {"OBJECTID": 57, "N": 57, "Name": "Tabia Aiashe", "X": 31.1081, "Y": 31.5983, "Location": null, "Age": null, "Data": null, "Importance": null, "Photo": null}}, {"type": "Feature", "id": 58, "geometry": {"type": "Point", "coordinates": [30.858300000155552, 31.303399999663295]}, "properties": {"OBJECTID": 58, "N": 58, "Name": "Moseque Abou El-Makarm", "X": 30.8583, "Y": 31.3034, "Location": null, "Age": "Islamic Era", "Data": null, "Importance": null, "Photo": null}}, {"type": "Feature", "id": 59, "geometry": {"type": "Point", "coordinates": [30.550199999898002, 31.20350000023479]}, "properties": {"OBJECTID": 59, "N": 59, "Name": "Moseque El-Bakie", "X": 30.5502, "Y": 31.2035, "Location": "It is located in the city of Fuwwah, in the Kafr El-Sheikh Governorate.", "Age": "Islamic Era", "Data": "It was built in the late 18th or early 19th century AD.", "Importance": "It is one of the historic elevated mosques in the city of Fuwwah, Kafr El-Sheikh Governorate.", "Photo": null}}, {"type": "Feature", "id": 60, "geometry": {"type": "Point", "coordinates": [31.036500000348873, 31.206500000017744]}, "properties": {"OBJECTID": 60, "N": 60, "Name": "Moseque Zoheir", "X": 31.0365, "Y": 31.2065, "Location": null, "Age": "Islamic Era", "Data": null, "Importance": null, "Photo": null}}, {"type": "Feature", "id": 61, "geometry": {"type": "Point", "coordinates": [31.00959999960602, 31.587199999976015]}, "properties": {"OBJECTID": 61, "N": 61, "Name": "Moseque Sidi Yousef El-Sotohi", "X": 31.0096, "Y": 31.5872, "Location": "It is located in the village of Al-Banna’in (also known as Al-Yawasifa or Al-Wasaifa) within the Burullus Center of Kafr El-Sheikh Governorate.", "Age": "Islamic Era", "Data": "Established in 1924, the mosque received royal attention during the reign of King Farouk, who ordered its restoration and the preservation of its original architectural style. It houses the shrine of Sayyid Yusuf Al-Rishi Al-Rifa'i Al-Hasani.", "Importance": "It is considered one of the oldest and most renowned mosques in Burullus; it is said to be the first mosque in Egypt's history to be placed under the administration of the Ministry of Endowments (Awqaf).", "Photo": null}}, {"type": "Feature", "id": 62, "geometry": {"type": "Point", "coordinates": [31.093700000050926, 31.55580000015031]}, "properties": {"OBJECTID": 62, "N": 62, "Name": "Moseque Sidi Hasan El-raghay", "X": 31.0937, "Y": 31.5558, "Location": null, "Age": "Islamic Era", "Data": null, "Importance": null, "Photo": null}}, {"type": "Feature", "id": 63, "geometry": {"type": "Point", "coordinates": [30.463900000095247, 31.079799999881892]}, "properties": {"OBJECTID": 63, "N": 63, "Name": "Kom El-Nawwam", "X": 30.4639, "Y": 31.0798, "Location": null, "Age": null, "Data": null, "Importance": null, "Photo": null}}, {"type": "Feature", "id": 65, "geometry": {"type": "Point", "coordinates": [30.45610000017918, 31.17500000029271]}, "properties": {"OBJECTID": 65, "N": 65, "Name": "Kom El-Waset", "X": 30.4561, "Y": 31.175, "Location": null, "Age": null, "Data": null, "Importance": null, "Photo": null}}, {"type": "Feature", "id": 66, "geometry": {"type": "Point", "coordinates": [30.418100000378068, 31.21469999999871]}, "properties": {"OBJECTID": 66, "N": 66, "Name": "Kom El-Ghuraf", "X": 30.4181, "Y": 31.2147, "Location": null, "Age": null, "Data": null, "Importance": null, "Photo": null}}, {"type": "Feature", "id": 67, "geometry": {"type": "Point", "coordinates": [30.42100000029027, 31.385500000099164]}, "properties": {"OBJECTID": 67, "N": 67, "Name": "Kom Abu Mandour", "X": 30.421, "Y": 31.3855, "Location": null, "Age": null, "Data": null, "Importance": null, "Photo": null}}, {"type": "Feature", "id": 68, "geometry": {"type": "Point", "coordinates": [30.324000000436854, 30.96709999971659]}, "properties": {"OBJECTID": 68, "N": 68, "Name": "Kom El-Dahab", "X": 30.324, "Y": 30.9671, "Location": null, "Age": null, "Data": null, "Importance": null, "Photo": null}}, {"type": "Feature", "id": 69, "geometry": {"type": "Point", "coordinates": [30.323400000122465, 31.00970000009276]}, "properties": {"OBJECTID": 69, "N": 69, "Name": "Kom Abu Ismaiel", "X": 30.3234, "Y": 31.0097, "Location": null, "Age": null, "Data": null, "Importance": null, "Photo": null}}, {"type": "Feature", "id": 70, "geometry": {"type": "Point", "coordinates": [30.362800000149583, 31.105699999797228]}, "properties": {"OBJECTID": 70, "N": 70, "Name": "Kom Sebah", "X": 30.3628, "Y": 31.1057, "Location": null, "Age": null, "Data": null, "Importance": null, "Photo": null}}, {"type": "Feature", "id": 71, "geometry": {"type": "Point", "coordinates": [30.341699999888707, 31.08860000029343]}, "properties": {"OBJECTID": 71, "N": 71, "Name": "Kom El-Qarawi", "X": 30.3417, "Y": 31.0886, "Location": null, "Age": null, "Data": null, "Importance": null, "Photo": null}}, {"type": "Feature", "id": 72, "geometry": {"type": "Point", "coordinates": [30.328999999904596, 31.096900000151408]}, "properties": {"OBJECTID": 72, "N": 72, "Name": "Kom Saieda", "X": 30.329, "Y": 31.0969, "Location": null, "Age": null, "Data": null, "Importance": null, "Photo": null}}, {"type": "Feature", "id": 73, "geometry": {"type": "Point", "coordinates": [30.33559999969351, 31.10859999964516]}, "properties": {"OBJECTID": 73, "N": 73, "Name": "Kom Barsiq", "X": 30.3356, "Y": 31.1086, "Location": null, "Age": null, "Data": null, "Importance": null, "Photo": null}}, {"type": "Feature", "id": 74, "geometry": {"type": "Point", "coordinates": [30.311800000203057, 31.11679999967878]}, "properties": {"OBJECTID": 74, "N": 74, "Name": "Kom Ganadi", "X": 30.3118, "Y": 31.1168, "Location": null, "Age": null, "Data": null, "Importance": null, "Photo": null}}, {"type": "Feature", "id": 75, "geometry": {"type": "Point", "coordinates": [30.361799999511582, 31.144999999702545]}, "properties": {"OBJECTID": 75, "N": 75, "Name": "Kom Nakhlah", "X": 30.3618, "Y": 31.145, "Location": null, "Age": null, "Data": null, "Importance": null, "Photo": null}}, {"type": "Feature", "id": 76, "geometry": {"type": "Point", "coordinates": [30.329999999716932, 31.184300000201265]}, "properties": {"OBJECTID": 76, "N": 76, "Name": "Kom Aziza", "X": 30.33, "Y": 31.1843, "Location": null, "Age": null, "Data": null, "Importance": null, "Photo": null}}, {"type": "Feature", "id": 77, "geometry": {"type": "Point", "coordinates": [30.33079999959758, 31.19960000043997]}, "properties": {"OBJECTID": 77, "N": 77, "Name": "Kom Hashiem", "X": 30.3308, "Y": 31.1996, "Location": null, "Age": null, "Data": null, "Importance": null, "Photo": null}}, {"type": "Feature", "id": 78, "geometry": {"type": "Point", "coordinates": [30.293699999949954, 31.14370000010136]}, "properties": {"OBJECTID": 78, "N": 78, "Name": "Kom Tagala", "X": 30.2937, "Y": 31.1437, "Location": null, "Age": null, "Data": null, "Importance": null, "Photo": null}}, {"type": "Feature", "id": 79, "geometry": {"type": "Point", "coordinates": [30.30619999991853, 31.201700000255116]}, "properties": {"OBJECTID": 79, "N": 79, "Name": "Kom El-Debaa Bahari", "X": 30.3062, "Y": 31.2017, "Location": null, "Age": null, "Data": null, "Importance": null, "Photo": null}}, {"type": "Feature", "id": 80, "geometry": {"type": "Point", "coordinates": [30.272899999719694, 30.99909999959499]}, "properties": {"OBJECTID": 80, "N": 80, "Name": "Kom El-Boos", "X": 30.2729, "Y": 30.9991, "Location": null, "Age": null, "Data": null, "Importance": null, "Photo": null}}, {"type": "Feature", "id": 81, "geometry": {"type": "Point", "coordinates": [30.283899999903184, 31.041100000172534]}, "properties": {"OBJECTID": 81, "N": 81, "Name": "Kom El-Qanatir", "X": 30.2839, "Y": 31.0411, "Location": null, "Age": null, "Data": null, "Importance": null, "Photo": null}}, {"type": "Feature", "id": 82, "geometry": {"type": "Point", "coordinates": [30.247100000442668, 30.992299999756966]}, "properties": {"OBJECTID": 82, "N": 82, "Name": "Kom Khaleesh", "X": 30.2471, "Y": 30.9923, "Location": null, "Age": null, "Data": null, "Importance": null, "Photo": null}}, {"type": "Feature", "id": 83, "geometry": {"type": "Point", "coordinates": [30.217499999871713, 31.003900000086702]}, "properties": {"OBJECTID": 83, "N": 83, "Name": "Kom Hassan", "X": 30.2175, "Y": 31.0039, "Location": null, "Age": null, "Data": null, "Importance": null, "Photo": null}}, {"type": "Feature", "id": 84, "geometry": {"type": "Point", "coordinates": [30.174600000274918, 30.963199999675343]}, "properties": {"OBJECTID": 84, "N": 84, "Name": "Kom Trugi", "X": 30.1746, "Y": 30.9632, "Location": null, "Age": null, "Data": null, "Importance": null, "Photo": null}}, {"type": "Feature", "id": 85, "geometry": {"type": "Point", "coordinates": [30.145800000052198, 31.075499999792473]}, "properties": {"OBJECTID": 85, "N": 85, "Name": "Kom El-Qadi", "X": 30.1458, "Y": 31.0755, "Location": null, "Age": null, "Data": null, "Importance": null, "Photo": null}}, {"type": "Feature", "id": 86, "geometry": {"type": "Point", "coordinates": [30.160600000365275, 31.20329999981006]}, "properties": {"OBJECTID": 86, "N": 86, "Name": "Kom Mazen", "X": 30.1606, "Y": 31.2033, "Location": "It lies approximately 3.5 kilometres north of a larger town called Bulin", "Age": "Late Ptolemaic and Early Roman periods", "Data": "This area is now covered by an orchard and fields. Some pottery is visible lying on the fields and in drainage ditches, but it is only a light scatter of material.", "Importance": "There is a strong suggestion that if there were a true kom in the area, it has been completely removed. The pottery from the augers in Kom Mazen must relate to the relatively recent occupation of the area, perhaps over the last one thousand years", "Photo": null}}, {"type": "Feature", "id": 87, "geometry": {"type": "Point", "coordinates": [30.149299999716078, 31.233099999765635]}, "properties": {"OBJECTID": 87, "N": 87, "Name": "Kom Dahab", "X": 30.1493, "Y": 31.2331, "Location": null, "Age": null, "Data": null, "Importance": null, "Photo": null}}, {"type": "Feature", "id": 88, "geometry": {"type": "Point", "coordinates": [30.138599999644892, 31.233699999593018]}, "properties": {"OBJECTID": 88, "N": 88, "Name": "Kom Terfayeh", "X": 30.1386, "Y": 31.2337, "Location": null, "Age": null, "Data": null, "Importance": null, "Photo": null}}, {"type": "Feature", "id": 89, "geometry": {"type": "Point", "coordinates": [30.127500000021268, 31.16720000010163]}, "properties": {"OBJECTID": 89, "N": 89, "Name": "Kom Defshu", "X": 30.1275, "Y": 31.1672, "Location": null, "Age": null, "Data": null, "Importance": null, "Photo": null}}, {"type": "Feature", "id": 90, "geometry": {"type": "Point", "coordinates": [30.002599999499296, 31.091500000428905]}, "properties": {"OBJECTID": 90, "N": 90, "Name": "Kom El-Haggag", "X": 30.0026, "Y": 31.0915, "Location": null, "Age": null, "Data": null, "Importance": null, "Photo": null}}, {"type": "Feature", "id": 91, "geometry": {"type": "Point", "coordinates": [30.18969999998508, 31.138400000299715]}, "properties": {"OBJECTID": 91, "N": 91, "Name": "Kom El-Giza", "X": 30.1897, "Y": 31.1384, "Location": null, "Age": null, "Data": null, "Importance": null, "Photo": null}}, {"type": "Feature", "id": 92, "geometry": {"type": "Point", "coordinates": [30.084700000321817, 30.9399999999047]}, "properties": {"OBJECTID": 92, "N": 92, "Name": "Kom Adda", "X": 30.0847, "Y": 30.94, "Location": "lies some 8 kilometres north-west of Abu Matamir, a little further along the same road as Abu Guduur. The site may be the same as Kom Abdul Ghadi ", "Age": null, "Data": "The site is apparently built over by a village. The extent of the village is approximately 220 metres from north-west to south-east and up to 300 metres from south-west to north-east.", "Importance": " the site is the curious water feature to the south-west. There is a crescent-shaped, enclosed lake next to the village which may be a relic of an ancient river distributary or ox-bow lake.", "Photo": null}}, {"type": "Feature", "id": 93, "geometry": {"type": "Point", "coordinates": [30.05900000047554, 31.022799999871488]}, "properties": {"OBJECTID": 93, "N": 93, "Name": "Kom El-Mahar", "X": 30.059, "Y": 31.0228, "Location": "isolated in farmland, to the east of the Nubariyah Canal and approximately 3 kilometres south-west of Sidi Ghazi village.", "Age": null, "Data": "The site covers an area of approximately 440 metres from east to west and 240 metres from north to south at its greatest extent. The main part of the site consists of a 10-12 metre high mound on the north of the area covered in pottery, the latter inclu", "Importance": "The pottery from the site is of Late Ptolemaic to Late Roman in date, suggesting that the site may have been a Ptolemaic foundation continuing as a town into the Roman period", "Photo": null}}, {"type": "Feature", "id": 94, "geometry": {"type": "Point", "coordinates": [30.05260000004183, 30.97549999990306]}, "properties": {"OBJECTID": 94, "N": 94, "Name": "Kom El-Farag", "X": 30.0526, "Y": 30.9755, "Location": "a modern town, approximately 13 kilometres north-west of Abu Matamir.", "Age": null, "Data": "The cemetery part of Kom Farag lies to the\r\nnorth-west and may be a remnant of one of the older mounds in the area, such as Kom el\r\n51 Hanache/Hanash. The small mound is around a maximum of 1.5 metres above ground level\r\nand covered in graves.", "Importance": "It lies on both the Tirat Abdel al-Fatah and Tirat al\r\nHajar, main drainage channels and possibly close to the channel of one of the earlier Canopic\r\ndistributaries on the western side of Beheira.", "Photo": null}}, {"type": "Feature", "id": 95, "geometry": {"type": "Point", "coordinates": [30.020000000235893, 30.989200000295206]}, "properties": {"OBJECTID": 95, "N": 95, "Name": "Kom El-Gel", "X": 30.02, "Y": 30.9892, "Location": "The site at Ezbet Abd el-Qadir at-Tawil and lies approximately 17\r\nkilometres north-west of Abu Matamir", "Age": null, "Data": "a flat top and gently sloping northern side, perhaps rising up to 3 or 4 metres above the level of the roads and fields around it. The extent of the mound is\r\n270 metres from north to south and 220 metres from east to west.", "Importance": null, "Photo": null}}, {"type": "Feature", "id": 96, "geometry": {"type": "Point", "coordinates": [30.007761408322047, 31.108134602210175]}, "properties": {"OBJECTID": 96, "N": 96, "Name": "Kom Ishu", "X": 30.00776141, "Y": 31.1081346, "Location": "The site is situated upon a limestone outcrop at the edge of the northern limestone\r\nformation, approximately 12 kilometres west-south-west of Kafr ed-Dawar", "Age": null, "Data": "The dimensions of the rocky\r\noutcrop are 150 metres from east to west and 200 metres from north to south, with the\r\noutlying foothills and village", "Importance": null, "Photo": null}}, {"type": "Feature", "id": 97, "geometry": {"type": "Point", "coordinates": [30.18969999998508, 31.138400000299715]}, "properties": {"OBJECTID": 97, "N": 97, "Name": "Kom El-Hammam", "X": 30.1897, "Y": 31.1384, "Location": null, "Age": null, "Data": null, "Importance": null, "Photo": null}}, {"type": "Feature", "id": 98, "geometry": {"type": "Point", "coordinates": [30.307300000088173, 31.198100000368594]}, "properties": {"OBJECTID": 98, "N": 98, "Name": "Kom El-Debaa Qablii", "X": 30.3073, "Y": 31.1981, "Location": null, "Age": null, "Data": null, "Importance": null, "Photo": null}}, {"type": "Feature", "id": 99, "geometry": {"type": "Point", "coordinates": [30.703399999624256, 30.757400000170428]}, "properties": {"OBJECTID": 99, "N": 99, "Name": "Kom Hamadah", "X": 30.7034, "Y": 30.7574, "Location": null, "Age": null, "Data": null, "Importance": null, "Photo": null}}, {"type": "Feature", "id": 100, "geometry": {"type": "Point", "coordinates": [30.48910000020654, 30.863800000068956]}, "properties": {"OBJECTID": 100, "N": 100, "Name": "Kom Frien", "X": 30.4891, "Y": 30.8638, "Location": null, "Age": null, "Data": null, "Importance": null, "Photo": null}}, {"type": "Feature", "id": 101, "geometry": {"type": "Point", "coordinates": [30.519999999829214, 30.82540000005556]}, "properties": {"OBJECTID": 101, "N": 101, "Name": "Kom Dlingat", "X": 30.52, "Y": 30.8254, "Location": null, "Age": null, "Data": null, "Importance": null, "Photo": null}}, {"type": "Feature", "id": 102, "geometry": {"type": "Point", "coordinates": [30.3157999996058, 31.10080000031614]}, "properties": {"OBJECTID": 102, "N": 102, "Name": "Kom Baqr", "X": 30.3158, "Y": 31.1008, "Location": null, "Age": null, "Data": null, "Importance": null, "Photo": null}}, {"type": "Feature", "id": 103, "geometry": {"type": "Point", "coordinates": [30.174699999598495, 31.057399999605575]}, "properties": {"OBJECTID": 103, "N": 103, "Name": "Kom el-Khier", "X": 30.1747, "Y": 31.0574, "Location": null, "Age": null, "Data": null, "Importance": null, "Photo": null}}, {"type": "Feature", "id": 104, "geometry": {"type": "Point", "coordinates": [30.81739999973351, 30.837200000086092]}, "properties": {"OBJECTID": 104, "N": 104, "Name": "Kom Mahna", "X": 30.8174, "Y": 30.8372, "Location": null, "Age": null, "Data": null, "Importance": null, "Photo": null}}, {"type": "Feature", "id": 105, "geometry": {"type": "Point", "coordinates": [30.202199999688364, 30.97549999991032]}, "properties": {"OBJECTID": 105, "N": 105, "Name": "Kom Qadh", "X": 30.2022, "Y": 30.9755, "Location": null, "Age": null, "Data": null, "Importance": null, "Photo": null}}, {"type": "Feature", "id": 106, "geometry": {"type": "Point", "coordinates": [30.40269999996756, 30.945699999555973]}, "properties": {"OBJECTID": 106, "N": 106, "Name": "Kom Managier", "X": 30.4027, "Y": 30.9457, "Location": null, "Age": null, "Data": null, "Importance": null, "Photo": null}}, {"type": "Feature", "id": 107, "geometry": {"type": "Point", "coordinates": [30.214199999653644, 30.92870000024689]}, "properties": {"OBJECTID": 107, "N": 107, "Name": "Kom Radwan", "X": 30.2142, "Y": 30.9287, "Location": null, "Age": null, "Data": null, "Importance": null, "Photo": null}}, {"type": "Feature", "id": 108, "geometry": {"type": "Point", "coordinates": [30.48759999989238, 30.82650000010128]}, "properties": {"OBJECTID": 108, "N": 108, "Name": "Area Kamha", "X": 30.4876, "Y": 30.8265, "Location": null, "Age": null, "Data": null, "Importance": null, "Photo": null}}, {"type": "Feature", "id": 109, "geometry": {"type": "Point", "coordinates": [30.14749999955711, 31.079399999838405]}, "properties": {"OBJECTID": 109, "N": 109, "Name": "Kom El-Qadi", "X": 30.1475, "Y": 31.0794, "Location": "The site lies to the south of the main Cairo to Alexandria road, approximately 6 kilometres south of Kafr ed-Dawar", "Age": "Roman Era", "Data": "Covering an area of about 370 metres from east to west and 250 metres from north west to south-east ", "Importance": "In the village to the west there is a Roman bath-house which has been restored recently and includes part of the concrete floor of a tholos,  possible underfloor furnaces and some rectangular tanks. ", "Photo": null}}, {"type": "Feature", "id": 110, "geometry": {"type": "Point", "coordinates": [30.59460000013518, 30.89349999989643]}, "properties": {"OBJECTID": 110, "N": 110, "Name": "Kom Geif", "X": 30.5946, "Y": 30.8935, "Location": null, "Age": null, "Data": null, "Importance": null, "Photo": null}}, {"type": "Feature", "id": 111, "geometry": {"type": "Point", "coordinates": [30.42739999985049, 30.85579999967086]}, "properties": {"OBJECTID": 111, "N": 111, "Name": "Tell Abou Topol", "X": 30.4274, "Y": 30.8558, "Location": null, "Age": null, "Data": null, "Importance": null, "Photo": null}}, {"type": "Feature", "id": 112, "geometry": {"type": "Point", "coordinates": [30.660899999794204, 30.911599999560902]}, "properties": {"OBJECTID": 112, "N": 112, "Name": "Tell El-Shourah", "X": 30.6609, "Y": 30.9116, "Location": null, "Age": null, "Data": null, "Importance": null, "Photo": null}}, {"type": "Feature", "id": 113, "geometry": {"type": "Point", "coordinates": [30.20890000008172, 31.19100000008291]}, "properties": {"OBJECTID": 113, "N": 113, "Name": "Tell El-Kanaeus", "X": 30.2089, "Y": 31.191, "Location": null, "Age": null, "Data": null, "Importance": null, "Photo": null}}, {"type": "Feature", "id": 114, "geometry": {"type": "Point", "coordinates": [30.141000000411385, 30.926100000113]}, "properties": {"OBJECTID": 114, "N": 114, "Name": "Tell Abu Guduur", "X": 30.141, "Y": 30.9261, "Location": null, "Age": null, "Data": null, "Importance": null, "Photo": null}}, {"type": "Feature", "id": 115, "geometry": {"type": "Point", "coordinates": [30.166699999871657, 31.133299999631138]}, "properties": {"OBJECTID": 115, "N": 115, "Name": "Tell Shrief Khalaf", "X": 30.1667, "Y": 31.1333, "Location": null, "Age": null, "Data": null, "Importance": null, "Photo": null}}, {"type": "Feature", "id": 116, "geometry": {"type": "Point", "coordinates": [30.419699999570778, 31.383599999898998]}, "properties": {"OBJECTID": 116, "N": 116, "Name": "Tell Kom Farah", "X": 30.4197, "Y": 31.3836, "Location": null, "Age": null, "Data": null, "Importance": null, "Photo": null}}, {"type": "Feature", "id": 117, "geometry": {"type": "Point", "coordinates": [30.419699999570778, 31.383599999898998]}, "properties": {"OBJECTID": 117, "N": 116, "Name": "Tell Kom Farah", "X": 30.4197, "Y": 31.3836, "Location": null, "Age": null, "Data": null, "Importance": null, "Photo": null}}, {"type": "Feature", "id": 118, "geometry": {"type": "Point", "coordinates": [30.47780000034001, 30.940299999867015]}, "properties": {"OBJECTID": 118, "N": 117, "Name": "Tell Abu Humar", "X": 30.4778, "Y": 30.9403, "Location": null, "Age": null, "Data": null, "Importance": null, "Photo": null}}, {"type": "Feature", "id": 119, "geometry": {"type": "Point", "coordinates": [30.513199999677028, 31.313099999914073]}, "properties": {"OBJECTID": 119, "N": 118, "Name": "Tell Dibi", "X": 30.5132, "Y": 31.3131, "Location": null, "Age": null, "Data": null, "Importance": null, "Photo": null}}, {"type": "Feature", "id": 120, "geometry": {"type": "Point", "coordinates": [30.435900000186034, 30.98769999968764]}, "properties": {"OBJECTID": 120, "N": 119, "Name": "Tell El-Shoqa", "X": 30.4359, "Y": 30.9877, "Location": null, "Age": null, "Data": null, "Importance": null, "Photo": null}}, {"type": "Feature", "id": 121, "geometry": {"type": "Point", "coordinates": [30.352499999670897, 31.131400000005858]}, "properties": {"OBJECTID": 121, "N": 120, "Name": "Tell Bisintawy", "X": 30.3525, "Y": 31.1314, "Location": null, "Age": null, "Data": null, "Importance": null, "Photo": null}}, {"type": "Feature", "id": 122, "geometry": {"type": "Point", "coordinates": [30.388599999899448, 30.9284999999278]}, "properties": {"OBJECTID": 122, "N": 121, "Name": "Tell Barnugi", "X": 30.3886, "Y": 30.9285, "Location": null, "Age": null, "Data": null, "Importance": null, "Photo": null}}, {"type": "Feature", "id": 123, "geometry": {"type": "Point", "coordinates": [30.33260000028993, 31.374200000139144]}, "properties": {"OBJECTID": 123, "N": 122, "Name": "Tabiya EL-Alayem", "X": 30.3326, "Y": 31.3742, "Location": null, "Age": null, "Data": null, "Importance": null, "Photo": null}}, {"type": "Feature", "id": 124, "geometry": {"type": "Point", "coordinates": [30.358433474377193, 31.44650232005053]}, "properties": {"OBJECTID": 124, "N": 123, "Name": "Tabiya El-Abd", "X": 30.3589, "Y": 31.4467, "Location": "It extends from the Burj Rashid area in the east to the village of Al-Maadiya (Abu Qir/Idku) in the west.", "Age": "Islamic Era", "Data": "Its walls were constructed of thick limestone or brick and featured stone vaults and passageways designed to withstand naval bombardment, in addition to high, crenellated ramparts for surveillance.", "Importance": "It was built to protect the town and the coast from the west, and for surveillance and defense."}}, {"type": "Feature", "id": 125, "geometry": {"type": "Point", "coordinates": [30.33430000041958, 31.08630000045194]}, "properties": {"OBJECTID": 125, "N": 124, "Name": "Area Balbaah", "X": 30.3343, "Y": 31.0863, "Location": null, "Age": null, "Data": null, "Importance": null, "Photo": null}}, {"type": "Feature", "id": 126, "geometry": {"type": "Point", "coordinates": [30.312999999897972, 31.07409999955609]}, "properties": {"OBJECTID": 126, "N": 125, "Name": "Area Geradat", "X": 30.313, "Y": 31.0741, "Location": null, "Age": null, "Data": null, "Importance": null, "Photo": null}}, {"type": "Feature", "id": 127, "geometry": {"type": "Point", "coordinates": [30.46599999990172, 31.253900000406002]}, "properties": {"OBJECTID": 127, "N": 126, "Name": "Area Sidi Uqba", "X": 30.466, "Y": 31.2539, "Location": null, "Age": null, "Data": null, "Importance": null, "Photo": null}}, {"type": "Feature", "id": 128, "geometry": {"type": "Point", "coordinates": [30.342899999720768, 31.134300000342986]}, "properties": {"OBJECTID": 128, "N": 127, "Name": "Area Abureh", "X": 30.3429, "Y": 31.1343, "Location": null, "Age": null, "Data": null, "Importance": null, "Photo": null}}, {"type": "Feature", "id": 129, "geometry": {"type": "Point", "coordinates": [30.366599999794694, 30.86240000031217]}, "properties": {"OBJECTID": 129, "N": 128, "Name": "Area Al-Abqien", "X": 30.3666, "Y": 30.8624, "Location": null, "Age": null, "Data": null, "Importance": null, "Photo": null}}, {"type": "Feature", "id": 130, "geometry": {"type": "Point", "coordinates": [30.414800000344336, 31.39399999967602]}, "properties": {"OBJECTID": 130, "N": 129, "Name": "Town Rashied", "X": 30.4148, "Y": 31.394, "Location": null, "Age": null, "Data": null, "Importance": null, "Photo": null}}, {"type": "Feature", "id": 131, "geometry": {"type": "Point", "coordinates": [30.084899999898717, 31.04470000033497]}, "properties": {"OBJECTID": 131, "N": 130, "Name": "Village Sidi Ghazi", "X": 30.0849, "Y": 31.0447, "Location": null, "Age": null, "Data": null, "Importance": null, "Photo": null}}, {"type": "Feature", "id": 132, "geometry": {"type": "Point", "coordinates": [30.641099999688752, 31.119199999897347]}, "properties": {"OBJECTID": 132, "N": 131, "Name": "Jaziert El-Rahmaniah", "X": 30.6411, "Y": 31.1192, "Location": null, "Age": null, "Data": null, "Importance": null, "Photo": null}}, {"type": "Feature", "id": 133, "geometry": {"type": "Point", "coordinates": [30.118000000437068, 30.893699999719857]}, "properties": {"OBJECTID": 133, "N": 132, "Name": "Gianaclis Winery", "X": 30.118, "Y": 30.8937, "Location": null, "Age": null, "Data": null, "Importance": null, "Photo": null}}, {"type": "Feature", "id": 134, "geometry": {"type": "Point", "coordinates": [30.389700000177598, 31.43970000009786]}, "properties": {"OBJECTID": 134, "N": 133, "Name": "Fort Julien", "X": 30.3897, "Y": 31.4397, "Location": null, "Age": null, "Data": null, "Importance": null, "Photo": null}}, {"type": "Feature", "id": 135, "geometry": {"type": "Point", "coordinates": [30.420999999606444, 31.392000000272397]}, "properties": {"OBJECTID": 135, "N": 134, "Name": "Port Bolbitine", "X": 30.421, "Y": 31.392, "Location": null, "Age": null, "Data": null, "Importance": null, "Photo": null}}, {"type": "Feature", "id": 136, "geometry": {"type": "Point", "coordinates": [30.106499999496023, 31.357599999717003]}, "properties": {"OBJECTID": 136, "N": 135, "Name": "Port kanope insula", "X": 30.1065, "Y": 31.3576, "Location": null, "Age": null, "Data": null, "Importance": null, "Photo": null}}, {"type": "Feature", "id": 137, "geometry": {"type": "Point", "coordinates": [30.128799999653022, 31.312699999908357]}, "properties": {"OBJECTID": 137, "N": 136, "Name": "Port Thonis, Heracleion", "X": 30.1288, "Y": 31.3127, "Location": "Was a major ancient Egyptian port city and religious center located about 32 kilometers (20 miles) northeast of Alexandria in Abu Qir Bay, resting underwater today", "Age": "Greek Era", "Data": "Also known by its Egyptian name Thonis and Greek name Heracleion. Founded around the 8th century BC, it served as Egypt's mandatory gateway and customs port for maritime trade from Greece and the Mediterranean before Alexandria was founded. ", "Importance": "Sunk into the sea due to earthquakes, tsunamis, and soil liquefaction. The findings: Colossal red granite statues (including a 5.4-meter statue of the god Hapy), 64 shipwrecks, 700 ancient anchors, gold plaques, and the grand temple of Amun."}}, {"type": "Feature", "id": 138, "geometry": {"type": "Point", "coordinates": [30.092000000133265, 31.316200000373918]}, "properties": {"OBJECTID": 138, "N": 137, "Name": "Port Serapeion", "X": 30.092, "Y": 31.3162, "Location": null, "Age": null, "Data": null, "Importance": null, "Photo": null}}, {"type": "Feature", "id": 139, "geometry": {"type": "Point", "coordinates": [30.092000000133265, 31.316200000373918]}, "properties": {"OBJECTID": 139, "N": 138, "Name": "Port Menouthis", "X": 30.092, "Y": 31.3162, "Location": null, "Age": null, "Data": null, "Importance": null, "Photo": null}}, {"type": "Feature", "id": 140, "geometry": {"type": "Point", "coordinates": [30.058000000396056, 31.313399999596097]}, "properties": {"OBJECTID": 140, "N": 139, "Name": "Port Canopos", "X": 30.058, "Y": 31.3134, "Location": null, "Age": null, "Data": null, "Importance": null, "Photo": null}}, {"type": "Feature", "id": 141, "geometry": {"type": "Point", "coordinates": [30.189200000184456, 31.138700000307168]}, "properties": {"OBJECTID": 141, "N": 140, "Name": "Port Chersaion", "X": 30.1892, "Y": 31.1387, "Location": null, "Age": null, "Data": null, "Importance": null, "Photo": null}}, {"type": "Feature", "id": 142, "geometry": {"type": "Point", "coordinates": [30.376000000126787, 31.120000000250506]}, "properties": {"OBJECTID": 142, "N": 141, "Name": "Port Metelis", "X": 30.376, "Y": 31.12, "Location": null, "Age": null, "Data": null, "Importance": null, "Photo": null}}, {"type": "Feature", "id": 143, "geometry": {"type": "Point", "coordinates": [30.468000000031754, 31.03599999972268]}, "properties": {"OBJECTID": 143, "N": 142, "Name": "Port Hermopolis Mikra", "X": 30.468, "Y": 31.036, "Location": null, "Age": null, "Data": null, "Importance": null, "Photo": null}}, {"type": "Feature", "id": 144, "geometry": {"type": "Point", "coordinates": [30.492700000471583, 31.02739999983506]}, "properties": {"OBJECTID": 144, "N": 143, "Name": "Port Hierakonopolis", "X": 30.4927, "Y": 31.0274, "Location": null, "Age": null, "Data": null, "Importance": null, "Photo": null}}, {"type": "Feature", "id": 145, "geometry": {"type": "Point", "coordinates": [30.590599999579652, 30.900000000151373]}, "properties": {"OBJECTID": 145, "N": 144, "Name": "Port Naucratis", "X": 30.5906, "Y": 30.9, "Location": null, "Age": null, "Data": null, "Importance": null, "Photo": null}}, {"type": "Feature", "id": 146, "geometry": {"type": "Point", "coordinates": [30.59999999980727, 30.79499999995442]}, "properties": {"OBJECTID": 146, "N": 145, "Name": "Port Momemphis", "X": 30.6, "Y": 30.795, "Location": null, "Age": null, "Data": null, "Importance": null, "Photo": null}}, {"type": "Feature", "id": 147, "geometry": {"type": "Point", "coordinates": [30.174300000161534, 30.962799999732926]}, "properties": {"OBJECTID": 147, "N": 146, "Name": "Port Psenemphaia", "X": 30.1743, "Y": 30.9628, "Location": null, "Age": null, "Data": null, "Importance": null, "Photo": null}}, {"type": "Feature", "id": 148, "geometry": {"type": "Point", "coordinates": [30.2399999999641, 30.439999999820188]}, "properties": {"OBJECTID": 148, "N": 146, "Name": "Port Perire", "X": 30.24, "Y": 30.44, "Location": null, "Age": null, "Data": null, "Importance": null, "Photo": null}}, {"type": "Feature", "id": 149, "geometry": {"type": "Point", "coordinates": [30.35960000031993, 30.319099999978985]}, "properties": {"OBJECTID": 149, "N": 148, "Name": "Dier Anba Bishoy", "X": 30.3596, "Y": 30.3191, "Location": null, "Age": null, "Data": null, "Importance": null, "Photo": null}}, {"type": "Feature", "id": 150, "geometry": {"type": "Point", "coordinates": [30.354799999488147, 30.317800000340757]}, "properties": {"OBJECTID": 150, "N": 149, "Name": "Dier Al-Adraa Srian", "X": 30.3548, "Y": 30.3178, "Location": null, "Age": null, "Data": null, "Importance": null, "Photo": null}}, {"type": "Feature", "id": 151, "geometry": {"type": "Point", "coordinates": [30.331900000125522, 30.42360000043173]}, "properties": {"OBJECTID": 151, "N": 150, "Name": "Dier Tadrous", "X": 30.3319, "Y": 30.4236, "Location": null, "Age": null, "Data": null, "Importance": null, "Photo": null}}, {"type": "Feature", "id": 152, "geometry": {"type": "Point", "coordinates": [30.476400000002087, 30.29139999955315]}, "properties": {"OBJECTID": 152, "N": 151, "Name": "Dier Abou Maqar", "X": 30.4764, "Y": 30.2914, "Location": null, "Age": null, "Data": null, "Importance": null, "Photo": null}}, {"type": "Feature", "id": 153, "geometry": {"type": "Point", "coordinates": [30.27069999964108, 30.35709999954204]}, "properties": {"OBJECTID": 153, "N": 152, "Name": "Dier Al-Adraa Barmous", "X": 30.2707, "Y": 30.3571, "Location": null, "Age": null, "Data": null, "Importance": null, "Photo": null}}, {"type": "Feature", "id": 154, "geometry": {"type": "Point", "coordinates": [30.48879999996212, 30.31169999988933]}, "properties": {"OBJECTID": 154, "N": 153, "Name": "Church Dier Abou Maqar", "X": 30.4888, "Y": 30.3117, "Location": null, "Age": null, "Data": null, "Importance": null, "Photo": null}}, {"type": "Feature", "id": 155, "geometry": {"type": "Point", "coordinates": [30.328699999492112, 30.42629999983265]}, "properties": {"OBJECTID": 155, "N": 154, "Name": "Dier Tadrous", "X": 30.3287, "Y": 30.4263, "Location": null, "Age": null, "Data": null, "Importance": null, "Photo": null}}, {"type": "Feature", "id": 156, "geometry": {"type": "Point", "coordinates": [30.35300000031015, 30.37480000002689]}, "properties": {"OBJECTID": 156, "N": 155, "Name": "Church Al-Adraa, Mier-girgis", "X": 30.353, "Y": 30.3748, "Location": null, "Age": null, "Data": null, "Importance": null, "Photo": null}}, {"type": "Feature", "id": 157, "geometry": {"type": "Point", "coordinates": [30.162000000430094, 30.528600000137967]}, "properties": {"OBJECTID": 157, "N": 156, "Name": "Dier Anba Youhnes", "X": 30.162, "Y": 30.5286, "Location": null, "Age": null, "Data": null, "Importance": null, "Photo": null}}, {"type": "Feature", "id": 158, "geometry": {"type": "Point", "coordinates": [30.38569999962353, 30.92740000003013]}, "properties": {"OBJECTID": 158, "N": 157, "Name": "Cemetry El-Bardogy", "X": 30.3857, "Y": 30.9274, "Location": null, "Age": null, "Data": null, "Importance": null, "Photo": null}}, {"type": "Feature", "id": 159, "geometry": {"type": "Point", "coordinates": [30.24999999967278, 31.10000000028169]}, "properties": {"OBJECTID": 159, "N": 158, "Name": "Cemetery Sedi Yousef", "X": 30.25, "Y": 31.1, "Location": null, "Age": null, "Data": null, "Importance": null, "Photo": null}}, {"type": "Feature", "id": 160, "geometry": {"type": "Point", "coordinates": [30.30099999980157, 31.305399999853005]}, "properties": {"OBJECTID": 160, "N": 159, "Name": "Tahona Kom El-Twahin", "X": 30.301, "Y": 31.3054, "Location": null, "Age": null, "Data": null, "Importance": null, "Photo": null}}, {"type": "Feature", "id": 161, "geometry": {"type": "Point", "coordinates": [30.417999999561786, 31.409000000399338]}, "properties": {"OBJECTID": 161, "N": 160, "Name": "Antique Tahona", "X": 30.418, "Y": 31.409, "Location": "It is located on Dahliz al-Malik Street (also known as Al-Amsili Street) and is attached to the famous historic Al-Amsili House.", "Age": "Islamic Era", "Data": "Dating back to the 18th century (the Ottoman era), it was established by Uthman Agha al-Tubji (the artillery commander in Rosetta). It was named \"Abu Shahin\" after the last miller to operate it before it ceased operations.", "Importance": "It served a charitable purpose, having been established as a *waqf* (endowment) with proceeds dedicated to the maintenance and staffing of the Al-Mahalli Mosque—the largest mosque in Rosetta at the time."}}, {"type": "Feature", "id": 162, "geometry": {"type": "Point", "coordinates": [30.4692000003596, 31.03960000037468]}, "properties": {"OBJECTID": 162, "N": 161, "Name": "Damanhur Opera", "X": 30.4692, "Y": 31.0396, "Location": null, "Age": null, "Data": null, "Importance": null, "Photo": null}}, {"type": "Feature", "id": 163, "geometry": {"type": "Point", "coordinates": [30.42249999988374, 31.404900000264874]}, "properties": {"OBJECTID": 163, "N": 162, "Name": "Museum Rosetta", "X": 30.4225, "Y": 31.4049, "Location": "Is located on the west bank at the mouth of the Nile River where it meets the Mediterranean Sea, 65 km northeast of Alexandria.", "Age": "Islamic Era", "Data": "The house of Hussein Arab Kuli—who served as the Governor of Rosetta from 1844 to 1849—was selected to serve as a military museum. The structure comprises a ground floor and three additional stories, all designed in the Islamic architectural style.", "Importance": "It was built to commemorate the victory of the city's residents over the Fraser Expedition on September 19, 1807."}}, {"type": "Feature", "id": 164, "geometry": {"type": "Point", "coordinates": [30.520899999495754, 31.30559999969791]}, "properties": {"OBJECTID": 164, "N": 163, "Name": "Qanater Edfiena", "X": 30.5209, "Y": 31.3056, "Location": null, "Age": null, "Data": null, "Importance": null, "Photo": null}}, {"type": "Feature", "id": 165, "geometry": {"type": "Point", "coordinates": [30.77899999951505, 30.57769999970327]}, "properties": {"OBJECTID": 165, "N": 164, "Name": "House Othman Aghaa", "X": 30.779, "Y": 30.5777, "Location": null, "Age": null, "Data": null, "Importance": null, "Photo": null}}, {"type": "Feature", "id": 166, "geometry": {"type": "Point", "coordinates": [30.389500000193774, 31.439700000361864]}, "properties": {"OBJECTID": 166, "N": 165, "Name": "Citadle Qitbai", "X": 30.3895, "Y": 31.4397, "Location": "On the western bank of the Rosetta Branch of the Nile River, approximately 6 kilometers north of the city of Rosetta in Beheira Governorate", "Age": "Islamic Era", "Data": "It was built by the Mamluk Sultan Al-Ashraf Qaitbay in 886 AH (1482 CE) to repel Crusader raids and protect the Mamluk state's coasts and the port of Rosetta from pirate attacks.", "Importance": "To prevent commercial ships from entering the Nile River from the Mediterranean. In August 1799, the citadel witnessed the discovery of the famous Rosetta Stone by the French officer Bouchard during restoration work carried out during the French campaign."}}, {"type": "Feature", "id": 167, "geometry": {"type": "Point", "coordinates": [30.31889999969485, 30.396100000086637]}, "properties": {"OBJECTID": 167, "N": 166, "Name": "Ain Mariam", "X": 30.3189, "Y": 30.3961, "Location": null, "Age": null, "Data": null, "Importance": null, "Photo": null}}, {"type": "Feature", "id": 168, "geometry": {"type": "Point", "coordinates": [30.46910000035017, 31.03639999960589]}, "properties": {"OBJECTID": 168, "N": 167, "Name": "Moseque El-Tobah", "X": 30.4691, "Y": 31.0364, "Location": null, "Age": "Islamic Era", "Data": null, "Importance": null, "Photo": null}}, {"type": "Feature", "id": 169, "geometry": {"type": "Point", "coordinates": [30.421700000134564, 31.398900000437227]}, "properties": {"OBJECTID": 169, "N": 168, "Name": "Moseque Zaghlol", "X": 30.4217, "Y": 31.3989, "Location": null, "Age": "Islamic Era", "Data": null, "Importance": null, "Photo": null}}, {"type": "Feature", "id": 170, "geometry": {"type": "Point", "coordinates": [30.42109999947058, 31.40310000006249]}, "properties": {"OBJECTID": 170, "N": 169, "Name": "Moseque El-Gandi", "X": 30.4211, "Y": 31.4031, "Location": null, "Age": "Islamic Era", "Data": null, "Importance": null, "Photo": null}}, {"type": "Feature", "id": 171, "geometry": {"type": "Point", "coordinates": [30.422600000497106, 31.401699999689907]}, "properties": {"OBJECTID": 171, "N": 170, "Name": "Moseque Damaqsis", "X": 30.4226, "Y": 31.4017, "Location": null, "Age": "Islamic Era", "Data": null, "Importance": null, "Photo": null}}, {"type": "Feature", "id": 172, "geometry": {"type": "Point", "coordinates": [30.389700000177598, 31.43970000009786]}, "properties": {"OBJECTID": 172, "N": 171, "Name": "Moseque Al-Qalaa", "X": 30.3897, "Y": 31.4397, "Location": null, "Age": "Islamic Era", "Data": null, "Importance": null, "Photo": null}}]}